OBJECT B                
1 51825U 22019B   24156.91973306  .00013673  00000+0  60568-3 0  9998
2 51825  97.4300 228.4127 0012851 281.3152  78.6640 15.21677002125360
